{"type": "FeatureCollection", "features": [{"type": "Feature", "properties": {"norad_id": 28054, "name": "DMSP 5D-3 F16 (USA 172)", "group": "weather", "lat": -26.562058305823623, "lon": -174.22944359064866, "alt_km": 850.2909680391231, "timestamp": "2025-12-18T19:29:52.186758+00:00", "meta": {"OBJECT_NAME": "DMSP 5D-3 F16 (USA 172)", "OBJECT_ID": "2003-048A", "EPOCH": "2025-12-18T06:55:16.108032", "MEAN_MOTION": 14.14426294, "ECCENTRICITY": 0.00063323, "INCLINATION": 99.0041, "RA_OF_ASC_NODE": 9.789, "ARG_OF_PERICENTER": 303.2488, "MEAN_ANOMALY": 116.7971, "EPHEMERIS_TYPE": 0, "CLASSIFICATION_TYPE": "U", "NORAD_CAT_ID": 28054, "ELEMENT_SET_NO": 999, "REV_AT_EPOCH": 14391, "BSTAR": 7.9629067e-05, "MEAN_MOTION_DOT": 1.07e-06, "MEAN_MOTION_DDOT": 0}, "tle": {"line1": "1 28054U 03048A   25352.28838088  .00000107  00000+0  79629-4 0  9990", "line2": "2 28054  99.0041   9.7890 0006332 303.2488 116.7971 14.14426294143916"}}, "geometry": {"type": "Point", "coordinates": [-174.22944359064866, -26.562058305823623]}}, {"type": "Feature", "properties": {"norad_id": 28912, "name": "METEOSAT-9 (MSG-2)", "group": "weather", "lat": 1.571267140860064, "lon": 65.81988078438187, "alt_km": 35797.989377838385, "timestamp": "2025-12-18T19:29:52.186807+00:00", "meta": {"OBJECT_NAME": "METEOSAT-9 (MSG-2)", "OBJECT_ID": "2005-049B", "EPOCH": "2025-12-17T18:40:44.289696", "MEAN_MOTION": 1.00279199, "ECCENTRICITY": 0.00033756, "INCLINATION": 8.9502, "RA_OF_ASC_NODE": 55.9296, "ARG_OF_PERICENTER": 190.8164, "MEAN_ANOMALY": 165.8697, "EPHEMERIS_TYPE": 0, "CLASSIFICATION_TYPE": "U", "NORAD_CAT_ID": 28912, "ELEMENT_SET_NO": 999, "REV_AT_EPOCH": 517, "BSTAR": 0, "MEAN_MOTION_DOT": 1.4e-06, "MEAN_MOTION_DDOT": 0}, "tle": {"line1": "1 28912U 05049B   25351.77829039  .00000140  00000+0  00000+0 0  9994", "line2": "2 28912   8.9502  55.9296 0003375 190.8164 165.8697  1.00279199  5174"}}, "geometry": {"type": "Point", "coordinates": [65.81988078438187, 1.571267140860064]}}, {"type": "Feature", "properties": {"norad_id": 29522, "name": "DMSP 5D-3 F17 (USA 191)", "group": "weather", "lat": 21.764178776948054, "lon": -178.4041042787173, "alt_km": 837.7048760919743, "timestamp": "2025-12-18T19:29:52.186825+00:00", "meta": {"OBJECT_NAME": "DMSP 5D-3 F17 (USA 191)", "OBJECT_ID": "2006-050A", "EPOCH": "2025-12-18T06:52:24.364704", "MEAN_MOTION": 14.14921966, "ECCENTRICITY": 0.00096155, "INCLINATION": 98.739, "RA_OF_ASC_NODE": 357.5601, "ARG_OF_PERICENTER": 208.0689, "MEAN_ANOMALY": 151.9967, "EPHEMERIS_TYPE": 0, "CLASSIFICATION_TYPE": "U", "NORAD_CAT_ID": 29522, "ELEMENT_SET_NO": 999, "REV_AT_EPOCH": 98683, "BSTAR": 9.5975856e-05, "MEAN_MOTION_DOT": 1.42e-06, "MEAN_MOTION_DDOT": 0}, "tle": {"line1": "1 29522U 06050A   25352.28639311  .00000142  00000+0  95976-4 0  9997", "line2": "2 29522  98.7390 357.5601 0009615 208.0689 151.9967 14.14921966986834"}}, "geometry": {"type": "Point", "coordinates": [-178.4041042787173, 21.764178776948054]}}, {"type": "Feature", "properties": {"norad_id": 32958, "name": "FENGYUN 3A", "group": "weather", "lat": -27.464574524958408, "lon": -63.23962185735665, "alt_km": 828.5125845153643, "timestamp": "2025-12-18T19:29:52.186843+00:00", "meta": {"OBJECT_NAME": "FENGYUN 3A", "OBJECT_ID": "2008-026A", "EPOCH": "2025-12-18T06:05:42.277920", "MEAN_MOTION": 14.19516409, "ECCENTRICITY": 0.0007709, "INCLINATION": 98.6703, "RA_OF_ASC_NODE": 291.6647, "ARG_OF_PERICENTER": 292.8794, "MEAN_ANOMALY": 67.1568, "EPHEMERIS_TYPE": 0, "CLASSIFICATION_TYPE": "U", "NORAD_CAT_ID": 32958, "ELEMENT_SET_NO": 999, "REV_AT_EPOCH": 90973, "BSTAR": 5.7682074e-05, "MEAN_MOTION_DOT": 7.8e-07, "MEAN_MOTION_DDOT": 0}, "tle": {"line1": "1 32958U 08026A   25352.25396155  .00000078  00000+0  57682-4 0  9992", "line2": "2 32958  98.6703 291.6647 0007709 292.8794  67.1568 14.19516409909732"}}, "geometry": {"type": "Point", "coordinates": [-63.23962185735665, -27.464574524958408]}}, {"type": "Feature", "properties": {"norad_id": 35491, "name": "GOES 14", "group": "weather", "lat": -0.052905637819433006, "lon": -93.46072380169358, "alt_km": 35832.999446327434, "timestamp": "2025-12-18T19:29:52.186857+00:00", "meta": {"OBJECT_NAME": "GOES 14", "OBJECT_ID": "2009-033A", "EPOCH": "2025-12-18T05:56:17.584800", "MEAN_MOTION": 1.00096755, "ECCENTRICITY": 5.233e-05, "INCLINATION": 1.2169, "RA_OF_ASC_NODE": 85.3458, "ARG_OF_PERICENTER": 177.5457, "MEAN_ANOMALY": 160.0617, "EPHEMERIS_TYPE": 0, "CLASSIFICATION_TYPE": "U", "NORAD_CAT_ID": 35491, "ELEMENT_SET_NO": 999, "REV_AT_EPOCH": 477, "BSTAR": 0, "MEAN_MOTION_DOT": 1.4e-07, "MEAN_MOTION_DDOT": 0}, "tle": {"line1": "1 35491U 09033A   25352.24742575  .00000014  00000+0  00000+0 0  9993", "line2": "2 35491   1.2169  85.3458 0000523 177.5457 160.0617  1.00096755  4774"}}, "geometry": {"type": "Point", "coordinates": [-93.46072380169358, -0.052905637819433006]}}, {"type": "Feature", "properties": {"norad_id": 35951, "name": "DMSP 5D-3 F18 (USA 210)", "group": "weather", "lat": 21.710057781409255, "lon": -34.38741075004686, "alt_km": 834.9608137109144, "timestamp": "2025-12-18T19:29:52.186870+00:00", "meta": {"OBJECT_NAME": "DMSP 5D-3 F18 (USA 210)", "OBJECT_ID": "2009-057A", "EPOCH": "2025-12-18T05:48:56.802240", "MEAN_MOTION": 14.14772887, "ECCENTRICITY": 0.00119382, "INCLINATION": 98.8839, "RA_OF_ASC_NODE": 328.6157, "ARG_OF_PERICENTER": 48.323, "MEAN_ANOMALY": 311.8963, "EPHEMERIS_TYPE": 0, "CLASSIFICATION_TYPE": "U", "NORAD_CAT_ID": 35951, "ELEMENT_SET_NO": 999, "REV_AT_EPOCH": 83400, "BSTAR": 0.00014851161, "MEAN_MOTION_DOT": 2.42e-06, "MEAN_MOTION_DDOT": 0}, "tle": {"line1": "1 35951U 09057A   25352.24232410  .00000242  00000+0  14851-3 0  9998", "line2": "2 35951  98.8839 328.6157 0011938  48.3230 311.8963 14.14772887834009"}}, "geometry": {"type": "Point", "coordinates": [-34.38741075004686, 21.710057781409255]}}, {"type": "Feature", "properties": {"norad_id": 36411, "name": "EWS-G2 (GOES 15)", "group": "weather", "lat": -0.038573160257491336, "lon": 81.4995754681585, "alt_km": 35809.59091157869, "timestamp": "2025-12-18T19:29:52.186883+00:00", "meta": {"OBJECT_NAME": "EWS-G2 (GOES 15)", "OBJECT_ID": "2010-008A", "EPOCH": "2025-12-18T01:36:10.010592", "MEAN_MOTION": 1.00270611, "ECCENTRICITY": 0.00054803, "INCLINATION": 0.8263, "RA_OF_ASC_NODE": 86.0885, "ARG_OF_PERICENTER": 176.6124, "MEAN_ANOMALY": 269.6494, "EPHEMERIS_TYPE": 0, "CLASSIFICATION_TYPE": "U", "NORAD_CAT_ID": 36411, "ELEMENT_SET_NO": 999, "REV_AT_EPOCH": 5782, "BSTAR": 0, "MEAN_MOTION_DOT": 6.3e-07, "MEAN_MOTION_DDOT": 0}, "tle": {"line1": "1 36411U 10008A   25352.06678253  .00000063  00000+0  00000+0 0  9995", "line2": "2 36411   0.8263  86.0885 0005480 176.6124 269.6494  1.00270611 57825"}}, "geometry": {"type": "Point", "coordinates": [81.4995754681585, -0.038573160257491336]}}, {"type": "Feature", "properties": {"norad_id": 36744, "name": "COMS 1", "group": "weather", "lat": 4.114150490359351, "lon": 148.2411157735956, "alt_km": 35787.78431289694, "timestamp": "2025-12-18T19:29:52.186897+00:00", "meta": {"OBJECT_NAME": "COMS 1", "OBJECT_ID": "2010-032A", "EPOCH": "2025-12-17T19:45:51.581952", "MEAN_MOTION": 1.00271279, "ECCENTRICITY": 7.117e-05, "INCLINATION": 4.3524, "RA_OF_ASC_NODE": 77.9414, "ARG_OF_PERICENTER": 200.8351, "MEAN_ANOMALY": 232.5533, "EPHEMERIS_TYPE": 0, "CLASSIFICATION_TYPE": "U", "NORAD_CAT_ID": 36744, "ELEMENT_SET_NO": 999, "REV_AT_EPOCH": 4927, "BSTAR": 0, "MEAN_MOTION_DOT": -3.23e-06, "MEAN_MOTION_DDOT": 0}, "tle": {"line1": "1 36744U 10032A   25351.82351368 -.00000323  00000+0  00000+0 0  9999", "line2": "2 36744   4.3524  77.9414 0000711 200.8351 232.5533  1.00271279 49278"}}, "geometry": {"type": "Point", "coordinates": [148.2411157735956, 4.114150490359351]}}, {"type": "Feature", "properties": {"norad_id": 37214, "name": "FENGYUN 3B", "group": "weather", "lat": -12.74386755849965, "lon": 34.88416035508358, "alt_km": 831.8021329893536, "timestamp": "2025-12-18T19:29:52.186910+00:00", "meta": {"OBJECT_NAME": "FENGYUN 3B", "OBJECT_ID": "2010-059A", "EPOCH": "2025-12-18T06:36:22.013856", "MEAN_MOTION": 14.14791448, "ECCENTRICITY": 0.00217815, "INCLINATION": 98.9905, "RA_OF_ASC_NODE": 32.2914, "ARG_OF_PERICENTER": 341.868, "MEAN_ANOMALY": 150.9717, "EPHEMERIS_TYPE": 0, "CLASSIFICATION_TYPE": "U", "NORAD_CAT_ID": 37214, "ELEMENT_SET_NO": 999, "REV_AT_EPOCH": 78184, "BSTAR": 0.00013559178, "MEAN_MOTION_DOT": 2.16e-06, "MEAN_MOTION_DDOT": 0}, "tle": {"line1": "1 37214U 10059A   25352.27525479  .00000216  00000+0  13559-3 0  9994", "line2": "2 37214  98.9905  32.2914 0021781 341.8680 150.9717 14.14791448781840"}}, "geometry": {"type": "Point", "coordinates": [34.88416035508358, -12.74386755849965]}}, {"type": "Feature", "properties": {"norad_id": 37849, "name": "SUOMI NPP", "group": "weather", "lat": -67.3400226633401, "lon": -48.179036152903635, "alt_km": 835.9336889973802, "timestamp": "2025-12-18T19:29:52.186922+00:00", "meta": {"OBJECT_NAME": "SUOMI NPP", "OBJECT_ID": "2011-061A", "EPOCH": "2025-12-17T23:31:21.474624", "MEAN_MOTION": 14.19515682, "ECCENTRICITY": 0.00023932, "INCLINATION": 98.7779, "RA_OF_ASC_NODE": 289.2746, "ARG_OF_PERICENTER": 111.1248, "MEAN_ANOMALY": 249.0184, "EPHEMERIS_TYPE": 0, "CLASSIFICATION_TYPE": "U", "NORAD_CAT_ID": 37849, "ELEMENT_SET_NO": 999, "REV_AT_EPOCH": 73273, "BSTAR": 4.8615036e-05, "MEAN_MOTION_DOT": 5.8e-07, "MEAN_MOTION_DDOT": 0}, "tle": {"line1": "1 37849U 11061A   25351.98010966  .00000058  00000+0  48615-4 0  9995", "line2": "2 37849  98.7779 289.2746 0002393 111.1248 249.0184 14.19515682732735"}}, "geometry": {"type": "Point", "coordinates": [-48.179036152903635, -67.3400226633401]}}]}